{"fetched_at":"2026-07-20T18:29:00.674Z","source":"https://celestrak.org/NORAD/elements/gp.php?GROUP=spire&FORMAT=JSON","constellation":"spire","records":[{"OBJECT_NAME":"LEMUR-2-LEIA-PHILIP","OBJECT_ID":"2025-052AN","EPOCH":"2026-07-19T16:20:12.028128","CLASSIFICATION_TYPE":"U","MEAN_MOTION":14.97392896,"ECCENTRICITY":0.0005043,"INCLINATION":97.6792,"RA_OF_ASC_NODE":92.0799,"ARG_OF_PERICENTER":110.2054,"MEAN_ANOMALY":249.9711,"EPHEMERIS_TYPE":0,"NORAD_CAT_ID":63246,"ELEMENT_SET_NO":999,"REV_AT_EPOCH":7353,"BSTAR":0.000010244544,"MEAN_MOTION_DOT":6.2e-7,"MEAN_MOTION_DDOT":0},{"OBJECT_NAME":"LEMUR-2-LIA-MARTIN","OBJECT_ID":"2025-052AQ","EPOCH":"2026-07-19T22:34:18.830208","CLASSIFICATION_TYPE":"U","MEAN_MOTION":14.98045693,"ECCENTRICITY":0.00049728,"INCLINATION":97.6851,"RA_OF_ASC_NODE":92.8622,"ARG_OF_PERICENTER":78.1562,"MEAN_ANOMALY":282.0218,"EPHEMERIS_TYPE":0,"NORAD_CAT_ID":63248,"ELEMENT_SET_NO":999,"REV_AT_EPOCH":7358,"BSTAR":0.00011481931,"MEAN_MOTION_DOT":0.00001299,"MEAN_MOTION_DDOT":0},{"OBJECT_NAME":"LEMUR-2-DELOITTE-1","OBJECT_ID":"2025-052BB","EPOCH":"2026-07-20T02:55:53.429088","CLASSIFICATION_TYPE":"U","MEAN_MOTION":14.97806554,"ECCENTRICITY":0.00025323,"INCLINATION":97.6886,"RA_OF_ASC_NODE":93.371,"ARG_OF_PERICENTER":57.5042,"MEAN_ANOMALY":302.6425,"EPHEMERIS_TYPE":0,"NORAD_CAT_ID":63259,"ELEMENT_SET_NO":999,"REV_AT_EPOCH":7362,"BSTAR":0.00021493375,"MEAN_MOTION_DOT":0.00002467,"MEAN_MOTION_DDOT":0},{"OBJECT_NAME":"LEMUR-2-EMERSONROSE","OBJECT_ID":"2025-052BD","EPOCH":"2026-07-20T04:45:16.557984","CLASSIFICATION_TYPE":"U","MEAN_MOTION":14.99315368,"ECCENTRICITY":0.00024199,"INCLINATION":97.6884,"RA_OF_ASC_NODE":94.0706,"ARG_OF_PERICENTER":48.0369,"MEAN_ANOMALY":312.106,"EPHEMERIS_TYPE":0,"NORAD_CAT_ID":63261,"ELEMENT_SET_NO":999,"REV_AT_EPOCH":7368,"BSTAR":0.00019088864,"MEAN_MOTION_DOT":0.00002273,"MEAN_MOTION_DDOT":0},{"OBJECT_NAME":"LEMUR-2-MARACHE-FRAN","OBJECT_ID":"2025-052BE","EPOCH":"2026-07-19T22:48:55.794528","CLASSIFICATION_TYPE":"U","MEAN_MOTION":15.00331698,"ECCENTRICITY":0.00057649,"INCLINATION":97.6816,"RA_OF_ASC_NODE":94.1976,"ARG_OF_PERICENTER":233.5753,"MEAN_ANOMALY":126.4939,"EPHEMERIS_TYPE":0,"NORAD_CAT_ID":63262,"ELEMENT_SET_NO":999,"REV_AT_EPOCH":7367,"BSTAR":0.00013538639,"MEAN_MOTION_DOT":0.00001639,"MEAN_MOTION_DDOT":0},{"OBJECT_NAME":"LEMUR-2-THEFALCONER","OBJECT_ID":"2025-052BG","EPOCH":"2026-07-19T16:27:18.333504","CLASSIFICATION_TYPE":"U","MEAN_MOTION":14.97573199,"ECCENTRICITY":0.00006405,"INCLINATION":97.6815,"RA_OF_ASC_NODE":92.5267,"ARG_OF_PERICENTER":226.4008,"MEAN_ANOMALY":133.7162,"EPHEMERIS_TYPE":0,"NORAD_CAT_ID":63264,"ELEMENT_SET_NO":999,"REV_AT_EPOCH":7355,"BSTAR":0.000098722553,"MEAN_MOTION_DOT":0.00001095,"MEAN_MOTION_DDOT":0},{"OBJECT_NAME":"LEMUR-2-UNTITLED-SC","OBJECT_ID":"2025-061A","EPOCH":"2026-07-19T21:06:31.967424","CLASSIFICATION_TYPE":"U","MEAN_MOTION":15.13663233,"ECCENTRICITY":0.00196306,"INCLINATION":97.5661,"RA_OF_ASC_NODE":176.011,"ARG_OF_PERICENTER":147.4932,"MEAN_ANOMALY":212.7513,"EPHEMERIS_TYPE":0,"NORAD_CAT_ID":63351,"ELEMENT_SET_NO":999,"REV_AT_EPOCH":7253,"BSTAR":0.00010358432,"MEAN_MOTION_DOT":0.00001804,"MEAN_MOTION_DDOT":0},{"OBJECT_NAME":"LEMUR-2-ESPERANZA","OBJECT_ID":"2025-061B","EPOCH":"2026-07-19T22:05:43.705536","CLASSIFICATION_TYPE":"U","MEAN_MOTION":15.13769438,"ECCENTRICITY":0.00192682,"INCLINATION":97.5667,"RA_OF_ASC_NODE":176.1531,"ARG_OF_PERICENTER":146.7405,"MEAN_ANOMALY":213.5042,"EPHEMERIS_TYPE":0,"NORAD_CAT_ID":63352,"ELEMENT_SET_NO":999,"REV_AT_EPOCH":7254,"BSTAR":0.000098735892,"MEAN_MOTION_DOT":0.00001721,"MEAN_MOTION_DDOT":0},{"OBJECT_NAME":"LEMUR-2-KREMPEL-BRO2","OBJECT_ID":"2025-061C","EPOCH":"2026-07-19T20:55:58.221696","CLASSIFICATION_TYPE":"U","MEAN_MOTION":15.14196674,"ECCENTRICITY":0.00203955,"INCLINATION":97.5712,"RA_OF_ASC_NODE":176.68,"ARG_OF_PERICENTER":139.8605,"MEAN_ANOMALY":220.4138,"EPHEMERIS_TYPE":0,"NORAD_CAT_ID":63353,"ELEMENT_SET_NO":999,"REV_AT_EPOCH":7255,"BSTAR":0.00010595043,"MEAN_MOTION_DOT":0.00001876,"MEAN_MOTION_DDOT":0},{"OBJECT_NAME":"LEMUR-2-THERMORAPTOR","OBJECT_ID":"2025-061D","EPOCH":"2026-07-19T22:02:45.548736","CLASSIFICATION_TYPE":"U","MEAN_MOTION":15.14279945,"ECCENTRICITY":0.00201116,"INCLINATION":97.5719,"RA_OF_ASC_NODE":176.8081,"ARG_OF_PERICENTER":138.6783,"MEAN_ANOMALY":221.5975,"EPHEMERIS_TYPE":0,"NORAD_CAT_ID":63354,"ELEMENT_SET_NO":999,"REV_AT_EPOCH":7256,"BSTAR":0.00010481839,"MEAN_MOTION_DOT":0.00001859,"MEAN_MOTION_DDOT":0},{"OBJECT_NAME":"LEMUR-2-NEUROSPICY","OBJECT_ID":"2025-061E","EPOCH":"2026-07-19T21:18:19.579104","CLASSIFICATION_TYPE":"U","MEAN_MOTION":15.14398618,"ECCENTRICITY":0.00178774,"INCLINATION":97.5647,"RA_OF_ASC_NODE":176.3783,"ARG_OF_PERICENTER":141.5649,"MEAN_ANOMALY":218.686,"EPHEMERIS_TYPE":0,"NORAD_CAT_ID":63355,"ELEMENT_SET_NO":999,"REV_AT_EPOCH":7256,"BSTAR":0.00010554303,"MEAN_MOTION_DOT":0.00001877,"MEAN_MOTION_DDOT":0},{"OBJECT_NAME":"LEMUR-2-TILLINFINITY","OBJECT_ID":"2025-061F","EPOCH":"2026-07-20T05:46:30.829440","CLASSIFICATION_TYPE":"U","MEAN_MOTION":15.14985861,"ECCENTRICITY":0.00193969,"INCLINATION":97.5632,"RA_OF_ASC_NODE":177.0428,"ARG_OF_PERICENTER":129.5348,"MEAN_ANOMALY":230.7602,"EPHEMERIS_TYPE":0,"NORAD_CAT_ID":63356,"ELEMENT_SET_NO":999,"REV_AT_EPOCH":7264,"BSTAR":0.00011629764,"MEAN_MOTION_DOT":0.00002112,"MEAN_MOTION_DDOT":0},{"OBJECT_NAME":"LEMUR-2-KREMPEL-BRO1","OBJECT_ID":"2025-061G","EPOCH":"2026-07-19T21:18:46.711296","CLASSIFICATION_TYPE":"U","MEAN_MOTION":15.14789895,"ECCENTRICITY":0.00200221,"INCLINATION":97.5633,"RA_OF_ASC_NODE":176.5989,"ARG_OF_PERICENTER":132.0054,"MEAN_ANOMALY":228.2886,"EPHEMERIS_TYPE":0,"NORAD_CAT_ID":63357,"ELEMENT_SET_NO":999,"REV_AT_EPOCH":7258,"BSTAR":0.00010470456,"MEAN_MOTION_DOT":0.00001884,"MEAN_MOTION_DDOT":0},{"OBJECT_NAME":"LEMUR-2-LANGER2SPACE","OBJECT_ID":"2025-061H","EPOCH":"2026-07-19T22:06:24.367968","CLASSIFICATION_TYPE":"U","MEAN_MOTION":15.1448346,"ECCENTRICITY":0.00178029,"INCLINATION":97.5637,"RA_OF_ASC_NODE":176.4326,"ARG_OF_PERICENTER":139.8593,"MEAN_ANOMALY":220.3958,"EPHEMERIS_TYPE":0,"NORAD_CAT_ID":63358,"ELEMENT_SET_NO":999,"REV_AT_EPOCH":7257,"BSTAR":0.0001044557,"MEAN_MOTION_DOT":0.00001861,"MEAN_MOTION_DDOT":0},{"OBJECT_NAME":"LEMUR-2-BALTO","OBJECT_ID":"2025-052BH","EPOCH":"2026-07-20T03:14:16.480608","CLASSIFICATION_TYPE":"U","MEAN_MOTION":15.00387609,"ECCENTRICITY":0.00049722,"INCLINATION":97.6918,"RA_OF_ASC_NODE":94.3745,"ARG_OF_PERICENTER":305.9171,"MEAN_ANOMALY":54.1591,"EPHEMERIS_TYPE":0,"NORAD_CAT_ID":63395,"ELEMENT_SET_NO":999,"REV_AT_EPOCH":7370,"BSTAR":0.00018460864,"MEAN_MOTION_DOT":0.0000226,"MEAN_MOTION_DDOT":0},{"OBJECT_NAME":"LEMUR-2-KRISH","OBJECT_ID":"2025-135AK","EPOCH":"2026-07-20T00:59:54.307392","CLASSIFICATION_TYPE":"U","MEAN_MOTION":14.96467316,"ECCENTRICITY":0.0001126,"INCLINATION":97.7763,"RA_OF_ASC_NODE":315.701,"ARG_OF_PERICENTER":106.1381,"MEAN_ANOMALY":253.9965,"EPHEMERIS_TYPE":0,"NORAD_CAT_ID":64561,"ELEMENT_SET_NO":999,"REV_AT_EPOCH":5883,"BSTAR":0.00019606807,"MEAN_MOTION_DOT":0.00002167,"MEAN_MOTION_DDOT":0}]}
